NORAD_CAT_ID,OBJECT_NAME,OBJECT_TYPE,EPOCH,MEAN_MOTION,ECCENTRICITY,INCLINATION,RA_OF_ASC_NODE,ARG_OF_PERICENTER,MEAN_ANOMALY,BSTAR,MEAN_MOTION_DOT,MEAN_MOTION_DDOT,TLE_LINE0,TLE_LINE1,TLE_LINE2,SEMIMAJOR_AXIS,PERIOD,APOGEE,PERIGEE,DECAYED
55430.0,STARLINK-5642,PAYLOAD,2023-04-15 13:30:20,14.9832667,0.0003615,69.9999,254.811,270.0587,90.0158,-4.6686e-05,-6.5e-06,0.0,0 STARLINK-5642,1 55430U 23014AR  23105.56274073 -.00000650  00000-0 -46686-4 0  9999,2 55430  69.9999 254.8110 0003615 270.0587  90.0158 14.98326670 11488,6950.203,96.107,574.581,569.556,0.0
55430.0,STARLINK-5642,PAYLOAD,2023-04-15 19:54:52,14.98333854,0.0003626,69.9994,254.1375,270.0671,90.0073,1.5274e-05,8.9e-07,0.0,0 STARLINK-5642,1 55430U 23014AR  23105.82977406  .00000089  00000-0  15274-4 0  9991,2 55430  69.9994 254.1375 0003626 270.0671  90.0073 14.98333854 11528,6950.181,96.107,574.566,569.526,0.0
55430.0,STARLINK-5642,PAYLOAD,2023-04-16 13:32:21,14.98330122,0.0003495,70.0,252.2858,270.5449,89.531,-4.1338e-06,-1.42e-06,0.0,0 STARLINK-5642,1 55430U 23014AR  23106.56413668 -.00000142  00000-0 -41338-5 0  9991,2 55430  70.0000 252.2858 0003495 270.5449  89.5310 14.98330122 12574,6950.193,96.107,574.487,569.628,0.0
55430.0,STARLINK-5642,PAYLOAD,2023-04-16 19:56:53,14.98337076,0.0003572,69.9999,251.6126,269.7576,90.3174,3.0618e-05,2.72e-06,0.0,0 STARLINK-5642,1 55430U 23014AR  23106.83117032  .00000272  00000-0  30618-4 0  9997,2 55430  69.9999 251.6126 0003572 269.7576  90.3174 14.98337076 11679,6950.171,96.107,574.519,569.553,0.0
55430.0,STARLINK-5642,PAYLOAD,2023-04-17 13:34:22,14.98327983,0.0003469,70.0,249.7613,269.4138,90.6624,-2.1835e-05,-3.54e-06,0.0,0 STARLINK-5642,1 55430U 23014AR  23107.56553713 -.00000354  00000-0 -21835-4 0  9992,2 55430  70.0000 249.7613 0003469 269.4138  90.6624 14.98327983 12726,6950.199,96.107,574.475,569.653,0.0
55430.0,STARLINK-5642,PAYLOAD,2023-04-17 18:22:44,14.98401761,0.0003656,70.0002,249.2564,264.1551,95.9191,-0.0011989,-0.00014396,0.0,0 STARLINK-5642,1 55430U 23014AR  23107.76579643 -.00014396  00000-0 -11989-2 0  9992,2 55430  70.0002 249.2564 0003656 264.1551  95.9191 14.98401761 11810,6949.971,96.102,574.377,569.295,0.0
55430.0,STARLINK-5642,PAYLOAD,2023-04-18 08:47:59,14.98327675,0.0003676,69.9993,247.7416,271.9859,88.0879,-3.0102e-05,-4.52e-06,0.0,0 STARLINK-5642,1 55430U 23014AR  23108.36665786 -.00000452  00000-0 -30102-4 0  9991,2 55430  69.9993 247.7416 0003676 271.9859  88.0879 14.98327675 12845,6950.2,96.107,574.62,569.51,0.0
55430.0,STARLINK-5642,PAYLOAD,2023-04-18 13:36:23,14.98328279,0.0003607,69.9991,247.2358,269.8257,90.2489,-6.5296e-05,-8.72e-06,0.0,0 STARLINK-5642,1 55430U 23014AR  23108.56693860 -.00000872  00000-0 -65296-4 0  9995,2 55430  69.9991 247.2358 0003607 269.8257  90.2489 14.98328279 11937,6950.198,96.107,574.57,569.556,0.0
55430.0,STARLINK-5642,PAYLOAD,2023-04-18 18:24:47,14.98330258,0.0003609,69.9994,246.7311,269.9562,90.1184,-3.6076e-05,-5.24e-06,0.0,0 STARLINK-5642,1 55430U 23014AR  23108.76721644 -.00000524  00000-0 -36076-4 0  9997,2 55430  69.9994 246.7311 0003609 269.9562  90.1184 14.98330258 12904,6950.192,96.107,574.565,569.549,0.0
55430.0,STARLINK-5642,PAYLOAD,2023-04-19 16:50:38,14.98402018,0.0003787,69.9998,244.3764,263.7898,96.283,-0.0011471,-0.0001378,0.0,0 STARLINK-5642,1 55430U 23014AR  23109.70183777 -.00013780  00000-0 -11471-2 0  9999,2 55430  69.9998 244.3764 0003787 263.7898  96.2830 14.98402018 13040,6949.97,96.102,574.467,569.203,0.0
55430.0,STARLINK-5642,PAYLOAD,2023-04-20 08:52:01,14.98326312,0.000354,70.0004,242.6933,272.8941,87.1813,5.2805e-05,5.37e-06,0.0,0 STARLINK-5642,1 55430U 23014AR  23110.36945703  .00000537  00000-0  52805-4 0  9990,2 55430  70.0004 242.6933 0003540 272.8941  87.1813 14.98326312 13140,6950.204,96.107,574.53,569.609,0.0
55430.0,STARLINK-5642,PAYLOAD,2023-04-20 15:16:33,14.98326881,0.000373,70.0004,242.0193,274.8079,85.2654,1.9301e-05,1.37e-06,0.0,0 STARLINK-5642,1 55430U 23014AR  23110.63649788  .00000137  00000-0  19301-4 0  9994,2 55430  70.0004 242.0193 0003730 274.8079  85.2654 14.98326881 13184,6950.203,96.107,574.66,569.475,0.0
55430.0,STARLINK-5642,PAYLOAD,2023-04-20 18:28:49,14.98327994,0.000365,70.0004,241.6826,273.7766,86.2976,6.9195e-05,7.33e-06,0.0,0 STARLINK-5642,1 55430U 23014AR  23110.77001610  .00000733  00000-0  69195-4 0  9993,2 55430  70.0004 241.6826 0003650 273.7766  86.2976 14.98327994 13201,6950.199,96.107,574.601,569.527,0.0
55430.0,STARLINK-5642,PAYLOAD,2023-04-21 15:18:34,14.98331491,0.000321,70.0007,239.4947,263.9229,96.1565,3.0504e-06,-5.7e-07,0.0,0 STARLINK-5642,1 55430U 23014AR  23111.63789442 -.00000057  00000-0  30504-5 0  9998,2 55430  70.0007 239.4947 0003210 263.9229  96.1565 14.98331491 13335,6950.188,96.107,574.284,569.822,0.0
55430.0,STARLINK-5642,PAYLOAD,2023-04-22 07:19:54,14.98327248,0.0003576,70.0006,237.8121,267.7774,92.2975,8.866e-05,9.65e-06,0.0,0 STARLINK-5642,1 55430U 23014AR  23112.30549349  .00000965  00000-0  88660-4 0  9995,2 55430  70.0006 237.8121 0003576 267.7774  92.2975 14.98327248 13430,6950.201,96.107,574.552,569.581,0.0
55430.0,STARLINK-5642,PAYLOAD,2023-04-22 12:08:19,14.98324266,0.0003405,70.0005,237.3068,268.2453,91.8316,0.00010733,1.188e-05,0.0,0 STARLINK-5642,1 55430U 23014AR  23112.50577594  .00001188  00000-0  10733-3 0  9993,2 55430  70.0005 237.3068 0003405 268.2453  91.8316 14.98324266 13469,6950.211,96.107,574.442,569.709,0.0
55430.0,STARLINK-5642,PAYLOAD,2023-04-23 00:57:23,14.98331867,0.0003382,70.0006,235.96,268.1215,91.9556,4.7839e-06,-3.6e-07,0.0,0 STARLINK-5642,1 55430U 23014AR  23113.03985268 -.00000036  00000-0  47839-5 0  9994,2 55430  70.0006 235.9600 0003382 268.1215  91.9556 14.98331867 12602,6950.187,96.107,574.403,569.702,0.0
55430.0,STARLINK-5642,PAYLOAD,2023-04-23 07:21:55,14.98310434,0.0003108,70.0007,235.2867,266.7191,93.3613,0.00022832,2.631e-05,0.0,0 STARLINK-5642,1 55430U 23014AR  23113.30689771  .00002631  00000-0  22832-3 0  9990,2 55430  70.0007 235.2867 0003108 266.7191  93.3613 14.98310434 13589,6950.253,96.108,574.279,569.958,0.0
55430.0,STARLINK-5642,PAYLOAD,2023-04-23 10:34:12,14.98325569,0.0003274,70.0008,234.9499,268.6235,91.4549,-4.8986e-05,-6.77e-06,0.0,0 STARLINK-5642,1 55430U 23014AR  23113.44041862 -.00000677  00000-0 -48986-4 0  9997,2 55430  70.0008 234.9499 0003274 268.6235  91.4549 14.98325569 13606,6950.207,96.107,574.347,569.796,0.0
55430.0,STARLINK-5642,PAYLOAD,2023-04-24 00:59:23,14.98361209,0.0003391,70.0013,233.4352,273.3197,86.7574,-0.00051776,-6.271e-05,0.0,0 STARLINK-5642,1 55430U 23014AR  23114.04124637 -.00006271  00000-0 -51776-3 0  9992,2 55430  70.0013 233.4352 0003391 273.3197  86.7574 14.98361209 12755,6950.096,96.105,574.318,569.605,0.0
55430.0,STARLINK-5642,PAYLOAD,2023-04-24 07:23:55,14.98343681,0.0003345,70.0007,232.7614,268.9061,91.1715,0.00012932,1.451e-05,0.0,0 STARLINK-5642,1 55430U 23014AR  23114.30828150  .00001451  00000-0  12932-3 0  9996,2 55430  70.0007 232.7614 0003345 268.9061  91.1715 14.98343681 13730,6950.151,96.106,574.34,569.691,0.0
55430.0,STARLINK-5642,PAYLOAD,2023-04-25 10:38:16,14.98284479,0.0002956,70.0015,229.9017,268.0317,92.0504,-0.00045943,-5.564e-05,0.0,0 STARLINK-5642,1 55430U 23014AR  23115.44325123 -.00005564  00000-0 -45943-3 0  9993,2 55430  70.0015 229.9017 0002956 268.0317  92.0504 14.98284479 12965,6950.334,96.11,574.253,570.144,0.0
55430.0,STARLINK-5642,PAYLOAD,2023-04-26 12:16:23,14.98336284,0.0003163,70.0006,227.2069,275.1415,84.9383,-5.1148e-05,-7.03e-06,0.0,0 STARLINK-5642,1 55430U 23014AR  23116.51138496 -.00000703  00000-0 -51148-4 0  9992,2 55430  70.0006 227.2069 0003163 275.1415  84.9383 14.98336284 14062,6950.173,96.107,574.237,569.84,0.0
55430.0,STARLINK-5642,PAYLOAD,2023-04-26 17:04:47,14.98339492,0.0003361,70.0004,226.7016,275.2816,84.7959,-1.4477e-05,-2.66e-06,0.0,0 STARLINK-5642,1 55430U 23014AR  23116.71166132 -.00000266  00000-0 -14477-4 0  9990,2 55430  70.0004 226.7016 0003361 275.2816  84.7959 14.98339492 14096,6950.164,96.106,574.364,569.693,0.0
55430.0,STARLINK-5642,PAYLOAD,2023-04-27 10:42:15,14.98320507,0.0003118,70.0,224.85,272.9116,87.1687,0.00062493,7.37e-05,0.0,0 STARLINK-5642,1 55430U 23014AR  23117.44601457  .00007370  00000-0  62493-3 0  9996,2 55430  70.0000 224.8500 0003118 272.9116  87.1687 14.98320507 13266,6950.222,96.108,574.254,569.92,0.0
55430.0,STARLINK-5642,PAYLOAD,2023-04-28 05:55:52,14.98349258,0.0003191,70.0001,222.8302,275.0687,85.0108,8.6761e-05,9.43e-06,0.0,0 STARLINK-5642,1 55430U 23014AR  23118.24713089  .00000943  00000-0  86761-4 0  9994,2 55430  70.0001 222.8302 0003191 275.0687  85.0108 14.98349258 13385,6950.133,96.106,574.216,569.781,0.0
55430.0,STARLINK-5642,PAYLOAD,2023-04-28 13:56:32,14.98341845,0.0003494,69.9998,221.9883,274.3221,85.7539,7.9101e-05,8.51e-06,0.0,0 STARLINK-5642,1 55430U 23014AR  23118.58093136  .00000851  00000-0  79101-4 0  9993,2 55430  69.9998 221.9883 0003494 274.3221  85.7539 14.98341845 14372,6950.156,96.106,574.45,569.593,0.0
55430.0,STARLINK-5642,PAYLOAD,2023-04-29 10:46:18,14.98309736,0.000307,70.0012,219.8016,269.2547,90.826,0.00030093,3.498e-05,0.0,0 STARLINK-5642,1 55430U 23014AR  23119.44881953  .00003498  00000-0  30093-3 0  9997,2 55430  70.0012 219.8016 0003070 269.2547  90.8260 14.98309736 13561,6950.256,96.108,574.254,569.987,0.0
55430.0,STARLINK-5642,PAYLOAD,2023-04-29 12:22:26,14.98309207,0.0003078,70.0011,219.6333,268.8719,91.2087,0.00028924,3.358e-05,0.0,0 STARLINK-5642,1 55430U 23014AR  23119.51558070  .00003358  00000-0  28924-3 0  9991,2 55430  70.0011 219.6333 0003078 268.8719  91.2087 14.98309207 14515,6950.257,96.108,574.261,569.983,0.0
55430.0,STARLINK-5642,PAYLOAD,2023-04-29 15:34:41,14.98337652,0.0002785,70.0011,219.2967,270.0937,89.9903,-0.00019627,-2.434e-05,0.0,0 STARLINK-5642,1 55430U 23014AR  23119.64909280 -.00002434  00000-0 -19627-3 0  9994,2 55430  70.0011 219.2967 0002785 270.0937  89.9903 14.98337652 13598,6950.169,96.107,573.97,570.099,0.0
